OBJECT_NAME,OBJECT_ID,EPOCH,MEAN_MOTION,ECCENTRICITY,INCLINATION,RA_OF_ASC_NODE,ARG_OF_PERICENTER,MEAN_ANOMALY,EPHEMERIS_TYPE,CLASSIFICATION_TYPE,NORAD_CAT_ID,ELEMENT_SET_NO,REV_AT_EPOCH,BSTAR,MEAN_MOTION_DOT,MEAN_MOTION_DDOT
COSMOS 2507 (RODNIK-S 13),2015-050A,2026-05-11T22:18:05.313024,12.42926111,.00111816,82.4890,102.2440,69.8616,290.3666,0,U,40920,999,48235,.7370642E-3,.112E-5,0
COSMOS 2508 (RODNIK-S 14),2015-050B,2026-05-11T21:12:46.747296,12.42913496,.00154111,82.4843,100.7909,100.4786,259.8031,0,U,40921,999,48233,.11291691E-2,.166E-5,0
COSMOS 2509 (RODNIK-S 15),2015-050C,2026-05-11T21:40:46.085952,12.42882947,.00155436,82.4851,100.8774,116.6359,243.6315,0,U,40922,999,48237,.67148617E-3,.103E-5,0
LINGQIAO VIDEO A,2015-057B,2026-05-11T22:09:23.201280,14.77339785,.0017711,97.6625,128.5176,31.8357,328.3921,0,U,40959,999,57005,-.3922903E-5,-.76E-6,0
LINGQIAO VIDEO B,2015-057C,2026-05-11T23:17:03.500160,14.77446664,.00178473,97.6592,129.7354,31.8911,328.3377,0,U,40960,999,57010,.995084E-4,.662E-5,0
JILIN-1,2015-057D,2026-05-11T22:22:11.650656,14.78098420,.00176494,97.6511,133.1014,26.6073,333.6040,0,U,40961,999,57025,.73841348E-4,.487E-5,0
FOX-1A (AO-85),2015-058D,2026-05-11T20:40:12.464832,14.90751680,.0128941,64.7767,31.8535,70.8323,290.6693,0,U,40967,999,10815,.19422881E-3,.2063E-4,0
SINOD-D 1,2015-058E,2026-05-11T21:46:15.211200,14.95617289,.01174161,64.7770,12.5020,67.6144,293.7362,0,U,40968,999,11123,.24278901E-3,.2924E-4,0
ELEKTRO-L 2,2015-074A,2026-05-11T21:54:33.621696,1.00273011,.00015425,6.6029,70.9583,273.0298,199.8373,0,U,41105,999,3814,0,-.103E-5,0
DAMPE,2015-078A,2026-05-11T22:52:45.099264,15.30691397,.00112127,97.4572,137.2448,196.9326,163.1542,0,U,41173,999,57900,.19280761E-4,.495E-5,0
ORBCOMM FM114,2015-081A,2026-05-11T19:36:18.536544,14.58816736,.0001818,47.0034,173.9533,3.4905,356.5993,0,U,41179,999,55244,.68983789E-4,.155E-5,0
ORBCOMM FM110,2015-081D,2026-05-11T19:20:03.870240,14.58820822,.00040524,47.0003,173.4573,267.4531,92.5891,0,U,41182,999,55231,.82755189E-4,.219E-5,0
ORBCOMM FM112,2015-081F,2026-05-11T13:42:02.502720,14.58754597,.0002437,46.9987,83.3825,27.1107,332.9905,0,U,41184,999,55360,.10367E-3,.318E-5,0
ORBCOMM FM113,2015-081G,2026-05-11T13:07:23.334240,14.58816677,.0001447,47.0004,83.8593,6.0844,354.0059,0,U,41185,999,55358,.83222E-4,.222E-5,0
ORBCOMM FM108,2015-081J,2026-05-11T22:05:15.231552,14.58818442,.00023286,47.0063,353.6585,22.5882,337.5106,0,U,41187,999,55478,.12110765E-3,.401E-5,0
ORBCOMM FM117,2015-081K,2026-05-11T14:40:59.890656,14.58815973,.00027584,47.0027,353.7621,29.0372,331.0667,0,U,41188,999,55478,.11805092E-3,.386E-5,0
ORBCOMM FM116,2015-081L,2026-05-11T14:13:14.121984,14.58824755,.000239,47.0021,83.6406,271.4008,88.6604,0,U,41189,999,55359,.75882E-4,.187E-5,0
HORYU-4,2016-012D,2026-05-11T15:58:20.937504,15.77715483,.00056421,30.9894,342.9931,13.7022,346.3788,0,U,41340,999,56501,.69384794E-3,.12335E-2,0
ZIYUAN 3-02 (ZY 3-02),2016-033A,2026-05-11T22:46:30.962208,15.21441922,.00138226,97.3840,208.4158,66.0200,294.2481,0,U,41556,999,55247,.16168652E-3,.3571E-4,0
CARTOSAT-2C,2016-040A,2026-05-11T21:37:44.243328,15.19196189,.00083414,97.4507,192.3722,259.2013,100.8283,0,U,41599,999,54820,.12801056E-3,.2627E-4,0
LAPAN-A3,2016-040E,2026-05-11T23:07:39.205344,15.32873832,.00116018,97.1489,129.3081,137.8187,222.3951,0,U,41603,999,54926,.77322799E-4,.2384E-4,0
GAOFEN-3,2016-049A,2026-05-12T00:10:33.968640,14.42209958,.00009416,98.4029,140.3390,75.9142,284.2153,0,U,41727,999,51343,-.41600043E-4,-.18E-5,0
CAS-2T & KS-1Q,2016-066G,2026-05-11T19:22:49.236384,14.44589443,.03410289,98.3824,207.9553,239.8473,116.8523,0,U,41847,999,49954,.7798528E-4,.483E-5,0
YUNHAI-1 01,2016-068A,2026-05-11T23:45:54.468000,14.32713226,.00061822,98.5853,143.3329,131.5998,228.5716,0,U,41857,999,49664,.97698512E-4,.222E-5,0
RESOURCESAT-2A,2016-074A,2026-05-11T23:09:01.981728,14.21605358,.00024479,98.7528,205.7627,155.0659,205.0636,0,U,41877,999,48915,.12488087E-3,.23E-5,0
