COSMOS 2507 (RODNIK-S *)
1 40920U 15050A   26131.92922816  .00000112  00000+0  73706-3 0  9997
2 40920  82.4890 102.2440 0011181  69.8616 290.3666 12.42926111482352
COSMOS 2508 (RODNIK-S *)
1 40921U 15050B   26131.88387439  .00000166  00000+0  11292-2 0  9999
2 40921  82.4843 100.7909 0015411 100.4786 259.8031 12.42913496482330
COSMOS 2509 (RODNIK-S *)
1 40922U 15050C   26131.90331118  .00000103  00000+0  67149-3 0  9990
2 40922  82.4851 100.8774 0015543 116.6359 243.6315 12.42882947482378
LINGQIAO VIDEO A        
1 40959U 15057B   26131.92318520 -.00000076  00000+0 -39229-5 0  9992
2 40959  97.6625 128.5176 0017711  31.8357 328.3921 14.77339785570057
LINGQIAO VIDEO B        
1 40960U 15057C   26131.97017940  .00000662  00000+0  99508-4 0  9995
2 40960  97.6592 129.7354 0017847  31.8911 328.3377 14.77446664570105
JILIN-1                 
1 40961U 15057D   26131.93207929  .00000487  00000+0  73841-4 0  9997
2 40961  97.6511 133.1014 0017649  26.6073 333.6040 14.78098420570256
FOX-1A (AO-85)          
1 40967U 15058D   26131.86125538  .00002063  00000+0  19423-3 0  9998
2 40967  64.7767  31.8535 0128941  70.8323 290.6693 14.90751680108159
SINOD-D 1               
1 40968U 15058E   26131.90712050  .00002924  00000+0  24279-3 0  9996
2 40968  64.7770  12.5020 0117416  67.6144 293.7362 14.95617289111230
ELEKTRO-L 2             
1 41105U 15074A   26131.91288914 -.00000103  00000+0  00000+0 0  9996
2 41105   6.6029  70.9583 0001542 273.0298 199.8373  1.00273011 38142
DAMPE                   
1 41173U 15078A   26131.95329976  .00000495  00000+0  19281-4 0  9992
2 41173  97.4572 137.2448 0011212 196.9326 163.1542 15.30691397579001
ORBCOMM FM114           
1 41179U 15081A   26131.81688121  .00000155  00000+0  68984-4 0  9994
2 41179  47.0034 173.9533 0001818   3.4905 356.5993 14.58816736552441
ORBCOMM FM110           
1 41182U 15081D   26131.80560035  .00000219  00000+0  82755-4 0  9993
2 41182  47.0003 173.4573 0004052 267.4531  92.5891 14.58820822552311
ORBCOMM FM112           
1 41184U 15081F   26131.57086230  .00000318  00000+0  10367-3 0  9998
2 41184  46.9987  83.3825 0002437  27.1107 332.9905 14.58754597553601
ORBCOMM FM113           
1 41185U 15081G   26131.54679785  .00000222  00000+0  83222-4 0  9994
2 41185  47.0004  83.8593 0001447   6.0844 354.0059 14.58816677553585
ORBCOMM FM108           
1 41187U 15081J   26131.92031518  .00000401  00000+0  12111-3 0  9991
2 41187  47.0063 353.6585 0002328  22.5882 337.5106 14.58818442554789
ORBCOMM FM117           
1 41188U 15081K   26131.61180429  .00000386  00000+0  11805-3 0  9995
2 41188  47.0027 353.7621 0002758  29.0372 331.0667 14.58815973554782
ORBCOMM FM116           
1 41189U 15081L   26131.59252456  .00000187  00000+0  75882-4 0  9998
2 41189  47.0021  83.6406 0002390 271.4008  88.6604 14.58824755553590
HORYU-4                 
1 41340U 16012D   26131.66552011  .00123350  00000+0  69385-3 0  9998
2 41340  30.9894 342.9931 0005642  13.7022 346.3788 15.77715483565014
ZIYUAN 3-02 (ZY 3-02)   
1 41556U 16033A   26131.94896947  .00003571  00000+0  16169-3 0  9994
2 41556  97.3840 208.4158 0013822  66.0200 294.2481 15.21441922552476
CARTOSAT-2C             
1 41599U 16040A   26131.90120652  .00002627  00000+0  12801-3 0  9998
2 41599  97.4507 192.3722 0008341 259.2013 100.8283 15.19196189548207
LAPAN-A3                
1 41603U 16040E   26131.96364821  .00002384  00000+0  77323-4 0  9999
2 41603  97.1489 129.3081 0011601 137.8187 222.3951 15.32873832549264
GAOFEN-3                
1 41727U 16049A   26132.00733760 -.00000180  00000+0 -41600-4 0  9996
2 41727  98.4029 140.3390 0000941  75.9142 284.2153 14.42209958513432
CAS-2T & KS-1Q          
1 41847U 16066G   26131.80751431  .00000483  00000+0  77985-4 0  9999
2 41847  98.3824 207.9553 0341028 239.8473 116.8523 14.44589443499548
YUNHAI-1 01             
1 41857U 16068A   26131.99021375  .00000222  00000+0  97699-4 0  9994
2 41857  98.5853 143.3329 0006182 131.5998 228.5716 14.32713226496644
RESOURCESAT-2A          
1 41877U 16074A   26131.96460627  .00000230  00000+0  12488-3 0  9998
2 41877  98.7528 205.7627 0002447 155.0659 205.0636 14.21605358489159
